[{"OBJECT_NAME":"LUDI TANCE 1-01B (L-SAR 01B)","OBJECT_ID":"2022-018A","EPOCH":"2026-03-07T13:37:23.300256","MEAN_MOTION":14.88408066,"ECCENTRICITY":0.0001606,"INCLINATION":97.8122,"RA_OF_ASC_NODE":75.4265,"ARG_OF_PERICENTER":91.5383,"MEAN_ANOMALY":268.6018,"EPHEMERIS_TYPE":0,"CLASSIFICATION_TYPE":"U","NORAD_CAT_ID":51822,"ELEMENT_SET_NO":999,"REV_AT_EPOCH":21859,"BSTAR":3.0068e-5,"MEAN_MOTION_DOT":2.24e-6,"MEAN_MOTION_DDOT":0},{"OBJECT_NAME":"GEESAT-1 06","OBJECT_ID":"2022-058F","EPOCH":"2026-03-09T21:42:30.443328","MEAN_MOTION":14.8101583,"ECCENTRICITY":0.00346377,"INCLINATION":50.0048,"RA_OF_ASC_NODE":301.1801,"ARG_OF_PERICENTER":126.8919,"MEAN_ANOMALY":233.5201,"EPHEMERIS_TYPE":0,"CLASSIFICATION_TYPE":"U","NORAD_CAT_ID":52790,"ELEMENT_SET_NO":999,"REV_AT_EPOCH":20521,"BSTAR":0.00037629546,"MEAN_MOTION_DOT":2.747e-5,"MEAN_MOTION_DDOT":0}]
